{"type": "FeatureCollection", "features": [ {"type": "Feature", "properties": {"norad_id": 38552, "name": "METEOSAT-10 (MSG-3)", "group": "weather", "lat": 4.203001984292461, "lon": 143.61244301861223, "alt_km": 35787.44171970971, "timestamp": "2025-12-16T03:53:26.700957+00:00", "meta": {"OBJECT_NAME": "METEOSAT-10 (MSG-3)", "OBJECT_ID": "2012-035B", "EPOCH": "2025-12-15T01:24:14.488992", "MEAN_MOTION": 1.00275691, "ECCENTRICITY": 7.26e-05, "INCLINATION": 4.2342, "RA_OF_ASC_NODE": 61.719, "ARG_OF_PERICENTER": 262.6512, "MEAN_ANOMALY": 140.8651, "EPHEMERIS_TYPE": 0, "CLASSIFICATION_TYPE": "U", "NORAD_CAT_ID": 38552, "ELEMENT_SET_NO": 999, "REV_AT_EPOCH": 4901, "BSTAR": 0, "MEAN_MOTION_DOT": 1.3e-07, "MEAN_MOTION_DDOT": 0}, "tle": {"line1": "1 38552U 12035B   25349.05850103  .00000013  00000+0  00000+0 0  9991", "line2": "2 38552   4.2342  61.7190 0000726 262.6512 140.8651  1.00275691 49013"}}, "geometry": {"type": "Point", "coordinates": [143.61244301861223, 4.203001984292461]}}, {"type": "Feature", "properties": {"norad_id": 38771, "name": "METOP-B", "group": "weather", "lat": -48.85709314522291, "lon": 50.132418824512776, "alt_km": 829.5670166224982, "timestamp": "2025-12-16T03:53:26.700968+00:00", "meta": {"OBJECT_NAME": "METOP-B", "OBJECT_ID": "2012-049A", "EPOCH": "2025-12-15T07:51:03.199104", "MEAN_MOTION": 14.21409298, "ECCENTRICITY": 0.00030093, "INCLINATION": 98.6798, "RA_OF_ASC_NODE": 39.242, "ARG_OF_PERICENTER": 138.49, "MEAN_ANOMALY": 221.6506, "EPHEMERIS_TYPE": 0, "CLASSIFICATION_TYPE": "U", "NORAD_CAT_ID": 38771, "ELEMENT_SET_NO": 999, "REV_AT_EPOCH": 68714, "BSTAR": 8.5689185e-05, "MEAN_MOTION_DOT": 1.44e-06, "MEAN_MOTION_DDOT": 0}, "tle": {"line1": "1 38771U 12049A   25349.32712036  .00000144  00000+0  85689-4 0  9997", "line2": "2 38771  98.6798  39.2420 0003009 138.4900 221.6506 14.21409298687140"}}, "geometry": {"type": "Point", "coordinates": [50.132418824512776, -48.85709314522291]}}, {"type": "Feature", "properties": {"norad_id": 39216, "name": "INSAT-3D", "group": "weather", "lat": -0.2236212044914048, "lon": -87.0862337589649, "alt_km": 35781.89079414194, "timestamp": "2025-12-16T03:53:26.700981+00:00", "meta": {"OBJECT_NAME": "INSAT-3D", "OBJECT_ID": "2013-038B", "EPOCH": "2025-12-15T07:09:21.525984", "MEAN_MOTION": 1.00268926, "ECCENTRICITY": 0.00013103, "INCLINATION": 1.4512, "RA_OF_ASC_NODE": 84.9683, "ARG_OF_PERICENTER": 165.8773, "MEAN_ANOMALY": 70.2104, "EPHEMERIS_TYPE": 0, "CLASSIFICATION_TYPE": "U", "NORAD_CAT_ID": 39216, "ELEMENT_SET_NO": 999, "REV_AT_EPOCH": 4523, "BSTAR": 0, "MEAN_MOTION_DOT": -3.19e-06, "MEAN_MOTION_DDOT": 0}, "tle": {"line1": "1 39216U 13038B   25349.29816581 -.00000319  00000+0  00000+0 0  9991", "line2": "2 39216   1.4512  84.9683 0001310 165.8773  70.2104  1.00268926 45238"}}, "geometry": {"type": "Point", "coordinates": [-87.0862337589649, -0.2236212044914048]}}, {"type": "Feature", "properties": {"norad_id": 39260, "name": "FENGYUN 3C", "group": "weather", "lat": 52.13420810939614, "lon": 158.73205255666076, "alt_km": 829.6799365857869, "timestamp": "2025-12-16T03:53:26.700992+00:00", "meta": {"OBJECT_NAME": "FENGYUN 3C", "OBJECT_ID": "2013-052A", "EPOCH": "2025-12-15T08:38:01.089312", "MEAN_MOTION": 14.15697096, "ECCENTRICITY": 0.00144243, "INCLINATION": 98.4765, "RA_OF_ASC_NODE": 326.9112, "ARG_OF_PERICENTER": 188.2976, "MEAN_ANOMALY": 171.7962, "EPHEMERIS_TYPE": 0, "CLASSIFICATION_TYPE": "U", "NORAD_CAT_ID": 39260, "ELEMENT_SET_NO": 999, "REV_AT_EPOCH": 63255, "BSTAR": 7.6929208e-05, "MEAN_MOTION_DOT": 1.1e-06, "MEAN_MOTION_DDOT": 0}, "tle": {"line1": "1 39260U 13052A   25349.35973483  .00000110  00000+0  76929-4 0  9994", "line2": "2 39260  98.4765 326.9112 0014424 188.2976 171.7962 14.15697096632553"}}, "geometry": {"type": "Point", "coordinates": [158.73205255666076, 52.13420810939614]}}, {"type": "Feature", "properties": {"norad_id": 40069, "name": "METEOR-M 2", "group": "weather", "lat": 1.4022946418217064, "lon": 147.82514558020682, "alt_km": 819.9525333741449, "timestamp": "2025-12-16T03:53:26.701004+00:00", "meta": {"OBJECT_NAME": "METEOR-M 2", "OBJECT_ID": "2014-037A", "EPOCH": "2025-12-15T08:28:10.790688", "MEAN_MOTION": 14.21389094, "ECCENTRICITY": 0.00051003, "INCLINATION": 98.4902, "RA_OF_ASC_NODE": 326.8375, "ARG_OF_PERICENTER": 201.2491, "MEAN_ANOMALY": 158.8476, "EPHEMERIS_TYPE": 0, "CLASSIFICATION_TYPE": "U", "NORAD_CAT_ID": 40069, "ELEMENT_SET_NO": 999, "REV_AT_EPOCH": 59320, "BSTAR": 0.00028257701, "MEAN_MOTION_DOT": 5.75e-06, "MEAN_MOTION_DDOT": 0}, "tle": {"line1": "1 40069U 14037A   25349.35290267  .00000575  00000+0  28258-3 0  9995", "line2": "2 40069  98.4902 326.8375 0005100 201.2491 158.8476 14.21389094593201"}}, "geometry": {"type": "Point", "coordinates": [147.82514558020682, 1.4022946418217064]}}, {"type": "Feature", "properties": {"norad_id": 40267, "name": "HIMAWARI-8", "group": "weather", "lat": -0.0013264540599475586, "lon": -75.92761319984842, "alt_km": 35781.938449880974, "timestamp": "2025-12-16T03:53:26.701016+00:00", "meta": {"OBJECT_NAME": "HIMAWARI-8", "OBJECT_ID": "2014-060A", "EPOCH": "2025-12-15T07:12:28.727136", "MEAN_MOTION": 1.00273038, "ECCENTRICITY": 9.195e-05, "INCLINATION": 0.0093, "RA_OF_ASC_NODE": 232.8099, "ARG_OF_PERICENTER": 52.2949, "MEAN_ANOMALY": 47.8848, "EPHEMERIS_TYPE": 0, "CLASSIFICATION_TYPE": "U", "NORAD_CAT_ID": 40267, "ELEMENT_SET_NO": 999, "REV_AT_EPOCH": 4091, "BSTAR": 0, "MEAN_MOTION_DOT": -2.54e-06, "MEAN_MOTION_DDOT": 0}, "tle": {"line1": "1 40267U 14060A   25349.30033249 -.00000254  00000+0  00000+0 0  9997", "line2": "2 40267   0.0093 232.8099 0000919  52.2949  47.8848  1.00273038 40913"}}, "geometry": {"type": "Point", "coordinates": [-75.92761319984842, -0.0013264540599475586]}}, {"type": "Feature", "properties": {"norad_id": 40367, "name": "FENGYUN 2G", "group": "weather", "lat": 1.0728814958995183, "lon": -117.12878128425112, "alt_km": 35777.684210687796, "timestamp": "2025-12-16T03:53:26.701027+00:00", "meta": {"OBJECT_NAME": "FENGYUN 2G", "OBJECT_ID": "2014-090A", "EPOCH": "2025-12-14T19:01:36.473664", "MEAN_MOTION": 1.00263482, "ECCENTRICITY": 0.00030138, "INCLINATION": 5.1737, "RA_OF_ASC_NODE": 75.0751, "ARG_OF_PERICENTER": 200.3872, "MEAN_ANOMALY": 193.116, "EPHEMERIS_TYPE": 0, "CLASSIFICATION_TYPE": "U", "NORAD_CAT_ID": 40367, "ELEMENT_SET_NO": 999, "REV_AT_EPOCH": 4015, "BSTAR": 0, "MEAN_MOTION_DOT": -2.83e-06, "MEAN_MOTION_DDOT": 0}, "tle": {"line1": "1 40367U 14090A   25348.79278326 -.00000283  00000+0  00000+0 0  9992", "line2": "2 40367   5.1737  75.0751 0003013 200.3872 193.1160  1.00263482 40156"}}, "geometry": {"type": "Point", "coordinates": [-117.12878128425112, 1.0728814958995183]}}, {"type": "Feature", "properties": {"norad_id": 40732, "name": "METEOSAT-11 (MSG-4)", "group": "weather", "lat": 2.7117993448828575, "lon": 152.63507076714782, "alt_km": 35784.142098058815, "timestamp": "2025-12-16T03:53:26.701040+00:00", "meta": {"OBJECT_NAME": "METEOSAT-11 (MSG-4)", "OBJECT_ID": "2015-034A", "EPOCH": "2025-12-15T06:35:02.313312", "MEAN_MOTION": 1.00268281, "ECCENTRICITY": 9.188e-05, "INCLINATION": 2.742, "RA_OF_ASC_NODE": 71.9941, "ARG_OF_PERICENTER": 130.1153, "MEAN_ANOMALY": 350.0855, "EPHEMERIS_TYPE": 0, "CLASSIFICATION_TYPE": "U", "NORAD_CAT_ID": 40732, "ELEMENT_SET_NO": 999, "REV_AT_EPOCH": 537, "BSTAR": 0, "MEAN_MOTION_DOT": 8.1e-07, "MEAN_MOTION_DDOT": 0}, "tle": {"line1": "1 40732U 15034A   25349.27433233  .00000081  00000+0  00000+0 0  9996", "line2": "2 40732   2.7420  71.9941 0000918 130.1153 350.0855  1.00268281  5375"}}, "geometry": {"type": "Point", "coordinates": [152.63507076714782, 2.7117993448828575]}}, {"type": "Feature", "properties": {"norad_id": 41105, "name": "ELEKTRO-L 2", "group": "weather", "lat": 5.187890180389243, "lon": 128.74368909330767, "alt_km": 35799.50609706183, "timestamp": "2025-12-16T03:53:26.701052+00:00", "meta": {"OBJECT_NAME": "ELEKTRO-L 2", "OBJECT_ID": "2015-074A", "EPOCH": "2025-12-15T01:19:59.895840", "MEAN_MOTION": 1.00272551, "ECCENTRICITY": 0.00038379, "INCLINATION": 6.2318, "RA_OF_ASC_NODE": 72.8015, "ARG_OF_PERICENTER": 207.9334, "MEAN_ANOMALY": 168.7361, "EPHEMERIS_TYPE": 0, "CLASSIFICATION_TYPE": "U", "NORAD_CAT_ID": 41105, "ELEMENT_SET_NO": 999, "REV_AT_EPOCH": 3666, "BSTAR": 0, "MEAN_MOTION_DOT": -1e-06, "MEAN_MOTION_DDOT": 0}, "tle": {"line1": "1 41105U 15074A   25349.05555435 -.00000100  00000+0  00000+0 0  9993", "line2": "2 41105   6.2318  72.8015 0003837 207.9334 168.7361  1.00272551 36661"}}, "geometry": {"type": "Point", "coordinates": [128.74368909330767, 5.187890180389243]}}, {"type": "Feature", "properties": {"norad_id": 41752, "name": "INSAT-3DR", "group": "weather", "lat": 0.05210609466857296, "lon": -142.73434303485956, "alt_km": 35750.45125784257, "timestamp": "2025-12-16T03:53:26.701064+00:00", "meta": {"OBJECT_NAME": "INSAT-3DR", "OBJECT_ID": "2016-054A", "EPOCH": "2025-12-15T01:45:19.969920", "MEAN_MOTION": 1.00271462, "ECCENTRICITY": 0.00142342, "INCLINATION": 0.0978, "RA_OF_ASC_NODE": 86.7655, "ARG_OF_PERICENTER": 184.3346, "MEAN_ANOMALY": 273.2085, "EPHEMERIS_TYPE": 0, "CLASSIFICATION_TYPE": "U", "NORAD_CAT_ID": 41752, "ELEMENT_SET_NO": 999, "REV_AT_EPOCH": 3397, "BSTAR": 0, "MEAN_MOTION_DOT": -5.7e-07, "MEAN_MOTION_DDOT": 0}, "tle": {"line1": "1 41752U 16054A   25349.07314780 -.00000057  00000+0  00000+0 0  9999", "line2": "2 41752   0.0978  86.7655 0014234 184.3346 273.2085  1.00271462 33977"}}, "geometry": {"type": "Point", "coordinates": [-142.73434303485956, 0.05210609466857296]}}]}